GLOBALSTAR M067         
1 32263U 07048A   25199.25939376 -.00000070  00000+0  20406-3 0  9997
2 32263  51.9744 305.0141 0001359  77.9186 299.1571 12.40674339813586
GLOBALSTAR M070         
1 32264U 07048B   25199.03903581 -.00000100  00000+0  19966-4 0  9997
2 32264  51.9762  34.5158 0000814  92.3824  75.2720 12.62320172818541
GLOBALSTAR M066         
1 32265U 07048C   25199.52269581 -.00000077  00000+0  14999-3 0  9990
2 32265  51.9636 295.7254 0004458  44.4471  70.0239 12.30010099820094
GLOBALSTAR M068         
1 32266U 07048D   25199.18078382 -.00000092  00000+0  65490-4 0  9990
2 32266  51.9856 207.7781 0001022 202.3991 234.3431 12.62826434821760
GLOBALSTAR M079         
1 37188U 10054A   25199.00213993 -.00000111  00000+0 -40925-4 0  9998
2 37188  52.0047  45.9802 0000935  59.1615 105.3515 12.62265456681025
GLOBALSTAR M074         
1 37189U 10054B   25199.10532419 -.00000104  00000+0 -33574-5 0  9992
2 37189  52.0028  44.9862 0000980  78.8044  73.1603 12.62266673681037
GLOBALSTAR M076         
1 37190U 10054C   25199.58103788 -.00000089  00000+0  82798-4 0  9991
2 37190  52.0040  43.7100 0001080  71.2682 324.3405 12.62263715681105
GLOBALSTAR M077         
1 37191U 10054D   25198.96277918 -.00000104  00000+0 -18873-5 0  9993
2 37191  52.0091   2.4572 0000869  93.7274  71.5726 12.62268837681036
